start=new Date('2021-12-26T00:00:00.000Z').valueOf();
sats=[{"ECCENTRICITY":"0.00018890","ARG_OF_PERICENTER":"103.2661","SEMIMAJOR_AXIS":"6925.357","RA_OF_ASC_NODE":"132.0502","MEAN_MOTION":"15.06397298","TLE_LINE1":"1 48285U 21036K   21359.78812612  .00001176  00000-0  97847-4 0  9998","REV_AT_EPOCH":"3696","BSTAR":"0.00009784700000","OBJECT_ID":"2021-036K","RCS_SIZE":"LARGE","INCLINATION":"53.0554","FILE":"3250974","EPOCH":"2021-12-25T18:54:54.096768","DECAY_DATE":null,"PERIAPSIS":"545.914","GP_ID":"192457339","LAUNCH_DATE":"2021-04-29","TIME_SYSTEM":"UTC","APOAPSIS":"548.530","EPHEMERIS_TYPE":"0","ELEMENT_SET_NO":"999","MEAN_ELEMENT_THEORY":"SGP4","REF_FRAME":"TEME","SITE":"AFETR","PERIOD":"95.592","MEAN_MOTION_DDOT":"0.0000000000000","NORAD_CAT_ID":"48285","MEAN_ANOMALY":"256.8539","CENTER_NAME":"EARTH","CLASSIFICATION_TYPE":"U","MEAN_MOTION_DOT":"0.00001176","OBJECT_NAME":"STARLINK-2548","COUNTRY_CODE":"US","TLE_LINE2":"2 48285  53.0554 132.0502 0001889 103.2661 256.8539 15.06397298 36961","OBJECT_TYPE":"PAYLOAD"},{"APOAPSIS":"548.414","EPHEMERIS_TYPE":"0","ELEMENT_SET_NO":"999","MEAN_ELEMENT_THEORY":"SGP4","REF_FRAME":"TEME","LAUNCH_DATE":"2021-04-29","TIME_SYSTEM":"UTC","CLASSIFICATION_TYPE":"U","MEAN_ANOMALY":"267.6764","NORAD_CAT_ID":"48286","CENTER_NAME":"EARTH","MEAN_MOTION_DOT":"0.00001420","OBJECT_NAME":"STARLINK-2547","COUNTRY_CODE":"US","OBJECT_TYPE":"PAYLOAD","TLE_LINE2":"2 48286  53.0551 131.7777 0001716  92.4421 267.6764 15.06395986 36974","SITE":"AFETR","MEAN_MOTION_DDOT":"0.0000000000000","PERIOD":"95.592","TLE_LINE1":"1 48286U 21036L   21359.85080049  .00001420  00000-0  11420-3 0  9992","REV_AT_EPOCH":"3697","ECCENTRICITY":"0.00017160","ARG_OF_PERICENTER":"92.4421","MEAN_MOTION":"15.06395986","SEMIMAJOR_AXIS":"6925.361","RA_OF_ASC_NODE":"131.7777","EPOCH":"2021-12-25T20:25:09.162336","DECAY_DATE":null,"FILE":"3250974","PERIAPSIS":"546.037","GP_ID":"192457591","BSTAR":"0.00011420000000","OBJECT_ID":"2021-036L","INCLINATION":"53.0551","RCS_SIZE":"LARGE"},{"COUNTRY_CODE":"US","OBJECT_NAME":"STARLINK-2566","TLE_LINE2":"2 48287  53.0539 131.7844 0001596  97.0420 263.0750 15.06400533 36972","OBJECT_TYPE":"PAYLOAD","NORAD_CAT_ID":"48287","MEAN_ANOMALY":"263.0750","CENTER_NAME":"EARTH","CLASSIFICATION_TYPE":"U","MEAN_MOTION_DOT":"0.00001813","SITE":"AFETR","PERIOD":"95.592","MEAN_MOTION_DDOT":"0.0000000000000","MEAN_ELEMENT_THEORY":"SGP4","REF_FRAME":"TEME","EPHEMERIS_TYPE":"0","APOAPSIS":"548.317","ELEMENT_SET_NO":"999","LAUNCH_DATE":"2021-04-29","TIME_SYSTEM":"UTC","PERIAPSIS":"546.107","GP_ID":"192458339","FILE":"3250974","EPOCH":"2021-12-25T20:19:50.893248","DECAY_DATE":null,"RCS_SIZE":"LARGE","INCLINATION":"53.0539","BSTAR":"0.00014056000000","OBJECT_ID":"2021-036M","TLE_LINE1":"1 48287U 21036M   21359.84711682  .00001813  00000-0  14056-3 0  9990","REV_AT_EPOCH":"3697","RA_OF_ASC_NODE":"131.7844","SEMIMAJOR_AXIS":"6925.347","MEAN_MOTION":"15.06400533","ECCENTRICITY":"0.00015960","ARG_OF_PERICENTER":"97.0420"},{"TLE_LINE1":"1 48288U 21036N   21359.84342982  .00000109  00000-0  26239-4 0  9998","REV_AT_EPOCH":"3697","ECCENTRICITY":"0.00014890","ARG_OF_PERICENTER":"97.0177","MEAN_MOTION":"15.06389991","SEMIMAJOR_AXIS":"6925.379","RA_OF_ASC_NODE":"131.8102","FILE":"3250974","EPOCH":"2021-12-25T20:14:32.336448","DECAY_DATE":null,"PERIAPSIS":"546.213","GP_ID":"192457089","BSTAR":"0.00002623900000","OBJECT_ID":"2021-036N","RCS_SIZE":"LARGE","INCLINATION":"53.0556","APOAPSIS":"548.275","EPHEMERIS_TYPE":"0","ELEMENT_SET_NO":"999","MEAN_ELEMENT_THEORY":"SGP4","REF_FRAME":"TEME","LAUNCH_DATE":"2021-04-29","TIME_SYSTEM":"UTC","MEAN_ANOMALY":"263.0981","NORAD_CAT_ID":"48288","CENTER_NAME":"EARTH","CLASSIFICATION_TYPE":"U","MEAN_MOTION_DOT":"0.00000109","COUNTRY_CODE":"US","OBJECT_NAME":"STARLINK-2562","TLE_LINE2":"2 48288  53.0556 131.8102 0001489  97.0177 263.0981 15.06389991 36970","OBJECT_TYPE":"PAYLOAD","SITE":"AFETR","PERIOD":"95.593","MEAN_MOTION_DDOT":"0.0000000000000"},{"OBJECT_ID":"2021-036P","BSTAR":"-0.00006426200000","RCS_SIZE":"LARGE","INCLINATION":"53.0543","FILE":"3250974","DECAY_DATE":null,"EPOCH":"2021-12-25T18:33:40.999680","GP_ID":"192456840","PERIAPSIS":"546.135","ARG_OF_PERICENTER":"96.5882","ECCENTRICITY":"0.00015820","MEAN_MOTION":"15.06394402","SEMIMAJOR_AXIS":"6925.366","RA_OF_ASC_NODE":"132.1151","REV_AT_EPOCH":"3696","TLE_LINE1":"1 48289U 21036P   21359.77339120 -.00001238  00000-0 -64262-4 0  9995","PERIOD":"95.592","MEAN_MOTION_DDOT":"0.0000000000000","SITE":"AFETR","MEAN_MOTION_DOT":"-0.00001238","NORAD_CAT_ID":"48289","CENTER_NAME":"EARTH","MEAN_ANOMALY":"263.5287","CLASSIFICATION_TYPE":"U","TLE_LINE2":"2 48289  53.0543 132.1151 0001582  96.5882 263.5287 15.06394402 36962","OBJECT_TYPE":"PAYLOAD","COUNTRY_CODE":"US","OBJECT_NAME":"STARLINK-2545","TIME_SYSTEM":"UTC","LAUNCH_DATE":"2021-04-29","ELEMENT_SET_NO":"999","APOAPSIS":"548.326","EPHEMERIS_TYPE":"0","REF_FRAME":"TEME","MEAN_ELEMENT_THEORY":"SGP4"},{"ECCENTRICITY":"0.00016940","ARG_OF_PERICENTER":"96.2100","RA_OF_ASC_NODE":"131.8555","SEMIMAJOR_AXIS":"6925.332","MEAN_MOTION":"15.06405281","TLE_LINE1":"1 48290U 21036Q   21359.83605923  .00002232  00000-0  16870-3 0  9995","REV_AT_EPOCH":"3697","BSTAR":"0.00016870000000","OBJECT_ID":"2021-036Q","RCS_SIZE":"LARGE","INCLINATION":"53.0539","FILE":"3250974","DECAY_DATE":null,"EPOCH":"2021-12-25T20:03:55.517472","PERIAPSIS":"546.024","GP_ID":"192458091","LAUNCH_DATE":"2021-04-29","TIME_SYSTEM":"UTC","APOAPSIS":"548.371","EPHEMERIS_TYPE":"0","ELEMENT_SET_NO":"999","MEAN_ELEMENT_THEORY":"SGP4","REF_FRAME":"TEME","SITE":"AFETR","PERIOD":"95.592","MEAN_MOTION_DDOT":"0.0000000000000","NORAD_CAT_ID":"48290","MEAN_ANOMALY":"263.9082","CENTER_NAME":"EARTH","CLASSIFICATION_TYPE":"U","MEAN_MOTION_DOT":"0.00002232","COUNTRY_CODE":"US","OBJECT_NAME":"STARLINK-2540","TLE_LINE2":"2 48290  53.0539 131.8555 0001694  96.2100 263.9082 15.06405281 36973","OBJECT_TYPE":"PAYLOAD"},{"PERIAPSIS":"546.029","GP_ID":"192457840","FILE":"3250974","EPOCH":"2021-12-25T19:58:36.083712","DECAY_DATE":null,"RCS_SIZE":"LARGE","INCLINATION":"53.0538","BSTAR":"0.00007954900000","OBJECT_ID":"2021-036R","TLE_LINE1":"1 48291U 21036R   21359.83236208  .00000904  00000-0  79549-4 0  9999","REV_AT_EPOCH":"3697","RA_OF_ASC_NODE":"131.8637","SEMIMAJOR_AXIS":"6925.344","MEAN_MOTION":"15.06401596","ECCENTRICITY":"0.00017040","ARG_OF_PERICENTER":"85.8477","COUNTRY_CODE":"US","OBJECT_NAME":"STARLINK-2555","TLE_LINE2":"2 48291  53.0538 131.8637 0001704  85.8477 274.2707 15.06401596 36971","OBJECT_TYPE":"PAYLOAD","MEAN_ANOMALY":"274.2707","NORAD_CAT_ID":"48291","CENTER_NAME":"EARTH","CLASSIFICATION_TYPE":"U","MEAN_MOTION_DOT":"0.00000904","SITE":"AFETR","PERIOD":"95.592","MEAN_MOTION_DDOT":"0.0000000000000","MEAN_ELEMENT_THEORY":"SGP4","REF_FRAME":"TEME","EPHEMERIS_TYPE":"0","APOAPSIS":"548.389","ELEMENT_SET_NO":"999","LAUNCH_DATE":"2021-04-29","TIME_SYSTEM":"UTC"},{"SITE":"AFETR","PERIOD":"95.592","MEAN_MOTION_DDOT":"0.0000000000000","COUNTRY_CODE":"US","OBJECT_NAME":"STARLINK-2542","TLE_LINE2":"2 48292  53.0549 131.5833 0001872  91.4616 268.6588 15.06398830 36984","OBJECT_TYPE":"PAYLOAD","CENTER_NAME":"EARTH","NORAD_CAT_ID":"48292","MEAN_ANOMALY":"268.6588","CLASSIFICATION_TYPE":"U","MEAN_MOTION_DOT":"0.00001796","LAUNCH_DATE":"2021-04-29","TIME_SYSTEM":"UTC","MEAN_ELEMENT_THEORY":"SGP4","REF_FRAME":"TEME","APOAPSIS":"548.514","EPHEMERIS_TYPE":"0","ELEMENT_SET_NO":"999","RCS_SIZE":"LARGE","INCLINATION":"53.0549","BSTAR":"0.00013943000000","OBJECT_ID":"2021-036S","PERIAPSIS":"545.921","GP_ID":"192456590","FILE":"3250974","EPOCH":"2021-12-25T21:27:29.221344","DECAY_DATE":null,"SEMIMAJOR_AXIS":"6925.352","RA_OF_ASC_NODE":"131.5833","MEAN_MOTION":"15.06398830","ECCENTRICITY":"0.00018720","ARG_OF_PERICENTER":"91.4616","TLE_LINE1":"1 48292U 21036S   21359.89408821  .00001796  00000-0  13943-3 0  9993","REV_AT_EPOCH":"3698"},{"REV_AT_EPOCH":"3698","TLE_LINE1":"1 48293U 21036T   21359.89133890  .00006222  00000-0  43627-3 0  9996","SEMIMAJOR_AXIS":"6925.361","RA_OF_ASC_NODE":"131.5930","MEAN_MOTION":"15.06395804","ARG_OF_PERICENTER":"98.5707","ECCENTRICITY":"0.00017450","GP_ID":"192457340","PERIAPSIS":"546.018","FILE":"3250974","EPOCH":"2021-12-25T21:23:31.680960","DECAY_DATE":null,"RCS_SIZE":"LARGE","INCLINATION":"53.0536","OBJECT_ID":"2021-036T","BSTAR":"0.00043627000000","REF_FRAME":"TEME","MEAN_ELEMENT_THEORY":"SGP4","ELEMENT_SET_NO":"999","EPHEMERIS_TYPE":"0","APOAPSIS":"548.435","TIME_SYSTEM":"UTC","LAUNCH_DATE":"2021-04-29","TLE_LINE2":"2 48293  53.0536 131.5930 0001745  98.5707 261.5480 15.06395804 36988","OBJECT_TYPE":"PAYLOAD","COUNTRY_CODE":"US","OBJECT_NAME":"STARLINK-2550","MEAN_MOTION_DOT":"0.00006222","CENTER_NAME":"EARTH","NORAD_CAT_ID":"48293","MEAN_ANOMALY":"261.5480","CLASSIFICATION_TYPE":"U","PERIOD":"95.592","MEAN_MOTION_DDOT":"0.0000000000000","SITE":"AFETR"},{"TLE_LINE2":"2 48294  53.0551 132.2195 0001709  87.0132 273.1053 15.06390759 36969","OBJECT_TYPE":"PAYLOAD","COUNTRY_CODE":"US","OBJECT_NAME":"STARLINK-2533","MEAN_MOTION_DOT":"0.00000813","NORAD_CAT_ID":"48294","MEAN_ANOMALY":"273.1053","CENTER_NAME":"EARTH","CLASSIFICATION_TYPE":"U","PERIOD":"95.593","MEAN_MOTION_DDOT":"0.0000000000000","SITE":"AFETR","REF_FRAME":"TEME","MEAN_ELEMENT_THEORY":"SGP4","ELEMENT_SET_NO":"999","EPHEMERIS_TYPE":"0","APOAPSIS":"548.425","TIME_SYSTEM":"UTC","LAUNCH_DATE":"2021-04-29","GP_ID":"192457592","PERIAPSIS":"546.058","FILE":"3250974","DECAY_DATE":null,"EPOCH":"2021-12-25T18:07:08.874048","RCS_SIZE":"LARGE","INCLINATION":"53.0551","OBJECT_ID":"2021-036U","BSTAR":"0.00007351000000","REV_AT_EPOCH":"3696","TLE_LINE1":"1 48294U 21036U   21359.75496382  .00000813  00000-0  73510-4 0  9995","SEMIMAJOR_AXIS":"6925.377","RA_OF_ASC_NODE":"132.2195","MEAN_MOTION":"15.06390759","ARG_OF_PERICENTER":"87.0132","ECCENTRICITY":"0.00017090"}];
